NORAD_CAT_ID,OBJECT_NAME,OBJECT_TYPE,EPOCH,MEAN_MOTION,ECCENTRICITY,INCLINATION,RA_OF_ASC_NODE,ARG_OF_PERICENTER,MEAN_ANOMALY,BSTAR,MEAN_MOTION_DOT,MEAN_MOTION_DDOT,TLE_LINE0,TLE_LINE1,TLE_LINE2,SEMIMAJOR_AXIS,PERIOD,APOGEE,PERIGEE,DECAYED
53438.0,STARLINK-4526,PAYLOAD,2024-07-22 03:46:10,15.08840899,0.0001445,53.2136,257.2163,83.1976,276.9181,6.3074e-05,7.16e-06,0.0,0 STARLINK-4526,1 53438U 22097BC  24204.15706026  .00000716  00000-0  63074-4 0  9990,2 53438  53.2136 257.2163 0001445  83.1976 276.9181 15.08840899108408,6917.878,95.437,540.742,538.743,0.0
53438.0,STARLINK-4526,PAYLOAD,2024-07-22 10:07:42,15.08843098,0.0001433,53.2147,256.0254,88.8388,271.2769,1.7767e-05,-5e-08,0.0,0 STARLINK-4526,1 53438U 22097BC  24204.42201944 -.00000005  00000-0  17767-4 0  9999,2 53438  53.2147 256.0254 0001433  88.8388 271.2769 15.08843098108936,6917.871,95.437,540.727,538.745,0.0
53438.0,STARLINK-4526,PAYLOAD,2024-07-23 09:58:29,15.08843122,0.0001522,53.2148,251.5656,87.0097,273.1069,0.00015066,2.111e-05,0.0,0 STARLINK-4526,1 53438U 22097BC  24205.41562041  .00002111  00000-0  15066-3 0  9995,2 53438  53.2148 251.5656 0001522  87.0097 273.1069 15.08843122108594,6917.871,95.437,540.789,538.683,0.0
53438.0,STARLINK-4526,PAYLOAD,2024-07-24 03:27:44,15.08831771,0.0001604,53.2169,248.2954,91.3921,268.7255,5.4998e-05,5.87e-06,0.0,0 STARLINK-4526,1 53438U 22097BC  24206.14427039  .00000587  00000-0  54998-4 0  9996,2 53438  53.2169 248.2954 0001604  91.3921 268.7255 15.08831771108703,6917.906,95.438,540.88,538.661,0.0
53438.0,STARLINK-4526,PAYLOAD,2024-07-24 09:49:17,15.08830809,0.0001586,53.2166,247.1069,93.1527,266.9647,2.0078e-05,3.1e-07,0.0,0 STARLINK-4526,1 53438U 22097BC  24206.40923215  .00000031  00000-0  20078-4 0  9998,2 53438  53.2166 247.1069 0001586  93.1527 266.9647 15.08830809109231,6917.908,95.438,540.871,538.676,0.0
53438.0,STARLINK-4526,PAYLOAD,2024-07-25 03:18:31,15.08841005,0.0001356,53.2156,243.8317,87.1999,272.9149,7.7917e-05,9.52e-06,0.0,0 STARLINK-4526,1 53438U 22097BC  24207.13786615  .00000952  00000-0  77917-4 0  9996,2 53438  53.2156 243.8317 0001356  87.1999 272.9149 15.08841005108851,6917.877,95.437,540.68,538.804,0.0
53438.0,STARLINK-4526,PAYLOAD,2024-07-25 06:29:17,15.08843321,0.0001355,53.2156,243.2382,91.8862,268.2285,0.00010476,1.38e-05,0.0,0 STARLINK-4526,1 53438U 22097BC  24207.27034367  .00001380  00000-0  10476-3 0  9993,2 53438  53.2156 243.2382 0001355  91.8862 268.2285 15.08843321109366,6917.87,95.437,540.673,538.798,0.0
53438.0,STARLINK-4526,PAYLOAD,2024-07-25 08:04:40,15.08846013,0.0001329,53.2156,242.9403,84.031,276.0834,0.00011194,1.494e-05,0.0,0 STARLINK-4526,1 53438U 22097BC  24207.33658236  .00001494  00000-0  11194-3 0  9991,2 53438  53.2156 242.9403 0001329  84.0310 276.0834 15.08846013109378,6917.862,95.437,540.646,538.808,0.0
53438.0,STARLINK-4526,PAYLOAD,2024-07-26 09:30:51,15.08840503,0.000135,53.2158,238.1835,96.0473,264.0673,0.0001474,2.059e-05,0.0,0 STARLINK-4526,1 53438U 22097BC  24208.39642503  .00002059  00000-0  14740-3 0  9996,2 53438  53.2158 238.1835 0001350  96.0473 264.0673 15.08840503109043,6917.879,95.438,540.678,538.81,0.0
53438.0,STARLINK-4526,PAYLOAD,2024-07-26 19:03:09,15.08843637,0.0001281,53.2151,236.3994,90.7184,269.3955,0.00010171,1.331e-05,0.0,0 STARLINK-4526,1 53438U 22097BC  24208.79386357  .00001331  00000-0  10171-3 0  9998,2 53438  53.2151 236.3994 0001281  90.7184 269.3955 15.08843637109597,6917.869,95.437,540.62,538.848,0.0
53438.0,STARLINK-4526,PAYLOAD,2024-07-27 06:10:51,15.08843019,0.0001297,53.2149,234.3173,90.5196,269.5945,2.7268e-05,1.46e-06,0.0,0 STARLINK-4526,1 53438U 22097BC  24209.25754491  .00000146  00000-0  27268-4 0  9997,2 53438  53.2149 234.3173 0001297  90.5196 269.5945 15.08843019109662,6917.871,95.437,540.633,538.839,0.0
53438.0,STARLINK-4526,PAYLOAD,2024-07-27 10:57:00,15.08846849,0.0001339,53.2151,233.4254,90.0193,270.0953,5.2542e-05,5.49e-06,0.0,0 STARLINK-4526,1 53438U 22097BC  24209.45626094  .00000549  00000-0  52542-4 0  9996,2 53438  53.2151 233.4254 0001339  90.0193 270.0953 15.08846849109204,6917.859,95.437,540.651,538.798,0.0
53438.0,STARLINK-4526,PAYLOAD,2024-07-28 07:37:02,15.08833682,0.000146,53.2157,229.5579,89.7599,270.3561,-6.7334e-06,-3.95e-06,0.0,0 STARLINK-4526,1 53438U 22097BC  24210.31739210 -.00000395  00000-0 -67334-5 0  9995,2 53438  53.2157 229.5579 0001460  89.7599 270.3561 15.08833682109339,6917.9,95.438,540.775,538.755,0.0
53438.0,STARLINK-4526,PAYLOAD,2024-07-29 05:52:26,15.08841234,0.0001456,53.2158,225.3942,90.3662,269.7497,6.6841e-05,7.76e-06,0.0,0 STARLINK-4526,1 53438U 22097BC  24211.24474659  .00000776  00000-0  66841-4 0  9993,2 53438  53.2158 225.3942 0001456  90.3662 269.7497 15.08841234109479,6917.877,95.437,540.749,538.734,0.0
53438.0,STARLINK-4526,PAYLOAD,2024-07-29 07:27:49,15.08841197,0.0001458,53.2158,225.0969,90.1566,269.9593,6.4686e-05,7.42e-06,0.0,0 STARLINK-4526,1 53438U 22097BC  24211.31098664  .00000742  00000-0  64686-4 0  9997,2 53438  53.2158 225.0969 0001458  90.1566 269.9593 15.08841197109970,6917.877,95.437,540.75,538.733,0.0
53438.0,STARLINK-4526,PAYLOAD,2024-07-29 18:35:31,15.08841612,0.0001487,53.2164,223.015,92.1678,267.9485,9.0995e-05,1.161e-05,0.0,0 STARLINK-4526,1 53438U 22097BC  24211.77466579  .00001161  00000-0  90995-4 0  9999,2 53438  53.2164 223.0150 0001487  92.1678 267.9485 15.08841612110045,6917.875,95.437,540.769,538.712,0.0
53438.0,STARLINK-4526,PAYLOAD,2024-07-30 10:29:22,15.08844694,0.0001418,53.2157,220.0428,85.467,274.6484,0.00013058,1.791e-05,0.0,0 STARLINK-4526,1 53438U 22097BC  24212.43706359  .00001791  00000-0  13058-3 0  9999,2 53438  53.2157 220.0428 0001418  85.4670 274.6484 15.08844694109655,6917.866,95.437,540.712,538.75,0.0
53438.0,STARLINK-4526,PAYLOAD,2024-07-31 07:09:23,15.0884056,0.0001424,53.2155,216.1757,86.7684,273.3471,2.5569e-05,1.19e-06,0.0,0 STARLINK-4526,1 53438U 22097BC  24213.29818963  .00000119  00000-0  25569-4 0  9993,2 53438  53.2155 216.1757 0001424  86.7684 273.3471 15.08840560110270,6917.879,95.438,540.729,538.759,0.0
53438.0,STARLINK-4526,PAYLOAD,2024-07-31 23:03:15,15.08840177,0.000152,53.2165,213.2024,87.886,272.2306,4.1016e-06,-2.23e-06,0.0,0 STARLINK-4526,1 53438U 22097BC  24213.96059031 -.00000223  00000-0  41016-5 0  9993,2 53438  53.2165 213.2024 0001520  87.8860 272.2306 15.08840177110371,6917.88,95.438,540.796,538.693,0.0
53438.0,STARLINK-4526,PAYLOAD,2024-08-01 07:00:10,15.08841666,0.0001439,53.2164,211.7169,88.7488,271.3669,2.4633e-05,1.04e-06,0.0,0 STARLINK-4526,1 53438U 22097BC  24214.29178852  .00000104  00000-0  24633-4 0  9995,2 53438  53.2164 211.7169 0001439  88.7488 271.3669 15.08841666109934,6917.875,95.437,540.736,538.745,0.0
53438.0,STARLINK-4526,PAYLOAD,2024-08-02 08:26:20,15.0884156,0.0001421,53.2162,206.9592,91.4726,268.6429,7.116e-05,8.45e-06,0.0,0 STARLINK-4526,1 53438U 22097BC  24215.35162873  .00000845  00000-0  71160-4 0  9998,2 53438  53.2162 206.9592 0001421  91.4726 268.6429 15.08841560110090,6917.876,95.437,540.724,538.758,0.0
53438.0,STARLINK-4526,PAYLOAD,2024-08-02 16:23:16,15.08839279,0.0001407,53.2161,205.4723,90.8792,269.2361,4.1038e-05,3.65e-06,0.0,0 STARLINK-4526,1 53438U 22097BC  24215.68283134  .00000365  00000-0  41038-4 0  9996,2 53438  53.2161 205.4723 0001407  90.8792 269.2361 15.08839279110635,6917.883,95.438,540.721,538.774,0.0
53438.0,STARLINK-4526,PAYLOAD,2024-08-03 05:06:21,15.08836309,0.0001454,53.2162,203.0937,92.3002,267.8157,3.7848e-05,3.14e-06,0.0,0 STARLINK-4526,1 53438U 22097BC  24216.21275421  .00000314  00000-0  37848-4 0  9994,2 53438  53.2162 203.0937 0001454  92.3002 267.8157 15.08836309110223,6917.892,95.438,540.763,538.751,0.0
53438.0,STARLINK-4526,PAYLOAD,2024-08-03 08:17:08,15.08838143,0.0001423,53.216,202.4985,89.6783,270.4373,4.5838e-05,4.42e-06,0.0,0 STARLINK-4526,1 53438U 22097BC  24216.34523299  .00000442  00000-0  45838-4 0  9997,2 53438  53.2160 202.4985 0001423  89.6783 270.4373 15.08838143110732,6917.886,95.438,540.735,538.767,0.0
53438.0,STARLINK-4526,PAYLOAD,2024-08-03 16:14:03,15.08838252,0.0001444,53.2164,201.0121,91.4184,268.6974,4.6788e-05,4.57e-06,0.0,0 STARLINK-4526,1 53438U 22097BC  24216.67643332  .00000457  00000-0  46788-4 0  9995,2 53438  53.2164 201.0121 0001444  91.4184 268.6974 15.08838252110784,6917.886,95.438,540.75,538.752,0.0
53438.0,STARLINK-4526,PAYLOAD,2024-08-04 06:32:31,15.08844608,0.0001438,53.2162,198.3363,92.1869,267.9288,7.229e-05,8.63e-06,0.0,0 STARLINK-4526,1 53438U 22097BC  24217.27258882  .00000863  00000-0  72290-4 0  9992,2 53438  53.2162 198.3363 0001438  92.1869 267.9288 15.08844608110387,6917.866,95.437,540.726,538.737,0.0
53438.0,STARLINK-4526,PAYLOAD,2024-08-04 16:04:50,15.08838794,0.0001341,53.2155,196.5503,89.9691,270.1455,2.3323e-05,8.3e-07,0.0,0 STARLINK-4526,1 53438U 22097BC  24217.67003330  .00000083  00000-0  23323-4 0  9999,2 53438  53.2155 196.5503 0001341  89.9691 270.1455 15.08838794110443,6917.884,95.438,540.677,538.821,0.0
53438.0,STARLINK-4526,PAYLOAD,2024-08-04 22:26:23,15.08837686,0.0001384,53.2155,195.3593,91.5122,268.6029,6.5305e-05,7.51e-06,0.0,0 STARLINK-4526,1 53438U 22097BC  24217.93499313  .00000751  00000-0  65305-4 0  9996,2 53438  53.2155 195.3593 0001384  91.5122 268.6029 15.08837686110970,6917.887,95.438,540.71,538.795,0.0
53438.0,STARLINK-4526,PAYLOAD,2024-08-05 04:47:55,15.08845223,0.0001367,53.2159,194.1706,94.0067,266.1081,8.0353e-05,9.91e-06,0.0,0 STARLINK-4526,1 53438U 22097BC  24218.19994802  .00000991  00000-0  80353-4 0  9994,2 53438  53.2159 194.1706 0001367  94.0067 266.1081 15.08845223110522,6917.864,95.437,540.675,538.784,0.0
53438.0,STARLINK-4526,PAYLOAD,2024-08-05 15:55:37,15.08838326,0.0001355,53.2156,192.0894,89.2783,270.8365,2.2822e-05,7.5e-07,0.0,0 STARLINK-4526,1 53438U 22097BC  24218.66363333  .00000075  00000-0  22822-4 0  9995,2 53438  53.2156 192.0894 0001355  89.2783 270.8365 15.08838326110592,6917.886,95.438,540.688,538.813,0.0
